start=new Date('2022-09-09T00:00:00.000Z').valueOf();
sats=[{"CLASSIFICATION_TYPE":"U","CENTER_NAME":"EARTH","FILE":"3564431","RCS_SIZE":"LARGE","SEMIMAJOR_AXIS":"6917.904","RA_OF_ASC_NODE":"205.3319","INCLINATION":"53.2171","ELEMENT_SET_NO":"999","BSTAR":"0.00010529000000","EPHEMERIS_TYPE":"0","TIME_SYSTEM":"UTC","LAUNCH_DATE":"2021-11-13","ECCENTRICITY":"0.00023150","GP_ID":"212093299","MEAN_MOTION_DOT":"0.00001387","OBJECT_TYPE":"PAYLOAD","SITE":"AFETR","OBJECT_NAME":"STARLINK-3139","MEAN_MOTION":"15.08832280","ARG_OF_PERICENTER":"55.1445","MEAN_ELEMENT_THEORY":"SGP4","REF_FRAME":"TEME","TLE_LINE1":"1 49425U 21104T   22251.90413426  .00001387  00000-0  10529-3 0  9992","PERIAPSIS":"538.167","EPOCH":"2022-09-08T21:41:57.200064","MEAN_ANOMALY":"304.9765","OBJECT_ID":"2021-104T","NORAD_CAT_ID":"49425","TLE_LINE2":"2 49425  53.2171 205.3319 0002315  55.1445 304.9765 15.08832280 45733","PERIOD":"95.438","APOAPSIS":"541.370","DECAY_DATE":null,"MEAN_MOTION_DDOT":"0.0000000000000","COUNTRY_CODE":"US","REV_AT_EPOCH":"4573"},{"MEAN_ELEMENT_THEORY":"SGP4","TLE_LINE1":"1 49426U 21104U   22251.91149144  .00002038  00000-0  14610-3 0  9996","PERIAPSIS":"538.387","EPOCH":"2022-09-08T21:52:32.860416","REF_FRAME":"TEME","TLE_LINE2":"2 49426  53.2162 205.3015 0001944  55.5115 304.6060 15.08844322 45726","NORAD_CAT_ID":"49426","APOAPSIS":"541.077","PERIOD":"95.437","MEAN_ANOMALY":"304.6060","OBJECT_ID":"2021-104U","COUNTRY_CODE":"US","REV_AT_EPOCH":"4572","MEAN_MOTION_DDOT":"0.0000000000000","DECAY_DATE":null,"FILE":"3564431","RCS_SIZE":"LARGE","CENTER_NAME":"EARTH","CLASSIFICATION_TYPE":"U","INCLINATION":"53.2162","RA_OF_ASC_NODE":"205.3015","EPHEMERIS_TYPE":"0","ELEMENT_SET_NO":"999","BSTAR":"0.00014610000000","SEMIMAJOR_AXIS":"6917.867","ECCENTRICITY":"0.00019440","TIME_SYSTEM":"UTC","LAUNCH_DATE":"2021-11-13","OBJECT_TYPE":"PAYLOAD","SITE":"AFETR","ARG_OF_PERICENTER":"55.5115","MEAN_MOTION":"15.08844322","OBJECT_NAME":"STARLINK-3114","GP_ID":"212094050","MEAN_MOTION_DOT":"0.00002038"},{"MEAN_MOTION_DDOT":"0.0000000000000","DECAY_DATE":null,"COUNTRY_CODE":"US","REV_AT_EPOCH":"4573","MEAN_ANOMALY":"309.6286","OBJECT_ID":"2021-104V","TLE_LINE2":"2 49427  53.2168 205.3530 0001972  50.4880 309.6286 15.08836921 45731","NORAD_CAT_ID":"49427","APOAPSIS":"541.119","PERIOD":"95.438","REF_FRAME":"TEME","EPOCH":"2022-09-08T21:36:39.080448","TLE_LINE1":"1 49427U 21104V   22251.90045232  .00002234  00000-0  15846-3 0  9999","PERIAPSIS":"538.391","MEAN_ELEMENT_THEORY":"SGP4","MEAN_MOTION_DOT":"0.00002234","GP_ID":"212094793","SITE":"AFETR","OBJECT_NAME":"STARLINK-3131","OBJECT_TYPE":"PAYLOAD","MEAN_MOTION":"15.08836921","ARG_OF_PERICENTER":"50.4880","TIME_SYSTEM":"UTC","LAUNCH_DATE":"2021-11-13","ECCENTRICITY":"0.00019720","SEMIMAJOR_AXIS":"6917.890","INCLINATION":"53.2168","RA_OF_ASC_NODE":"205.3530","ELEMENT_SET_NO":"999","BSTAR":"0.00015846000000","EPHEMERIS_TYPE":"0","CENTER_NAME":"EARTH","CLASSIFICATION_TYPE":"U","FILE":"3564431","RCS_SIZE":"LARGE"},{"REF_FRAME":"TEME","TLE_LINE1":"1 49428U 21104W   22251.29420170  .00002621  00000-0  18275-3 0  9999","PERIAPSIS":"538.446","EPOCH":"2022-09-08T07:03:39.026880","MEAN_ELEMENT_THEORY":"SGP4","MEAN_MOTION_DDOT":"0.0000000000000","DECAY_DATE":null,"COUNTRY_CODE":"US","REV_AT_EPOCH":"4564","MEAN_ANOMALY":"306.9368","OBJECT_ID":"2021-104W","TLE_LINE2":"2 49428  53.2163 208.0688 0001890  53.1798 306.9368 15.08837470 45649","NORAD_CAT_ID":"49428","APOAPSIS":"541.061","PERIOD":"95.438","SEMIMAJOR_AXIS":"6917.888","INCLINATION":"53.2163","RA_OF_ASC_NODE":"208.0688","EPHEMERIS_TYPE":"0","ELEMENT_SET_NO":"999","BSTAR":"0.00018275000000","CENTER_NAME":"EARTH","CLASSIFICATION_TYPE":"U","FILE":"3563723","RCS_SIZE":"LARGE","MEAN_MOTION_DOT":"0.00002621","GP_ID":"212052094","OBJECT_TYPE":"PAYLOAD","SITE":"AFETR","ARG_OF_PERICENTER":"53.1798","OBJECT_NAME":"STARLINK-3121","MEAN_MOTION":"15.08837470","TIME_SYSTEM":"UTC","LAUNCH_DATE":"2021-11-13","ECCENTRICITY":"0.00018900"},{"MEAN_ELEMENT_THEORY":"SGP4","PERIAPSIS":"538.506","TLE_LINE1":"1 49430U 21104Y   22251.36685455  .00010339  00000-0  66652-3 0  9996","EPOCH":"2022-09-08T08:48:16.233120","REF_FRAME":"TEME","PERIOD":"95.437","APOAPSIS":"540.905","NORAD_CAT_ID":"49430","TLE_LINE2":"2 49430  53.2152 207.7480 0001734  52.7923 307.3227 15.08853024 46720","MEAN_ANOMALY":"307.3227","OBJECT_ID":"2021-104Y","REV_AT_EPOCH":"4672","COUNTRY_CODE":"US","MEAN_MOTION_DDOT":"0.0000000000000","DECAY_DATE":null,"RCS_SIZE":"LARGE","FILE":"3564352","CLASSIFICATION_TYPE":"U","CENTER_NAME":"EARTH","EPHEMERIS_TYPE":"0","ELEMENT_SET_NO":"999","BSTAR":"0.00066652000000","RA_OF_ASC_NODE":"207.7480","INCLINATION":"53.2152","SEMIMAJOR_AXIS":"6917.841","ECCENTRICITY":"0.00017340","LAUNCH_DATE":"2021-11-13","TIME_SYSTEM":"UTC","OBJECT_NAME":"STARLINK-3138","SITE":"AFETR","OBJECT_TYPE":"PAYLOAD","MEAN_MOTION":"15.08853024","ARG_OF_PERICENTER":"52.7923","MEAN_MOTION_DOT":"0.00010339","GP_ID":"212068631"},{"TLE_LINE2":"2 49431  53.2166 206.7234 0001565  71.0540 289.0622 15.08848969 45684","NORAD_CAT_ID":"49431","APOAPSIS":"540.801","PERIOD":"95.437","MEAN_ANOMALY":"289.0622","OBJECT_ID":"2021-104Z","COUNTRY_CODE":"US","REV_AT_EPOCH":"4568","MEAN_MOTION_DDOT":"0.0000000000000","DECAY_DATE":null,"MEAN_ELEMENT_THEORY":"SGP4","PERIAPSIS":"538.635","TLE_LINE1":"1 49431U 21104Z   22251.59229209  .00003365  00000-0  22937-3 0  9992","EPOCH":"2022-09-08T14:12:54.036576","REF_FRAME":"TEME","ECCENTRICITY":"0.00015650","TIME_SYSTEM":"UTC","LAUNCH_DATE":"2021-11-13","SITE":"AFETR","OBJECT_TYPE":"PAYLOAD","ARG_OF_PERICENTER":"71.0540","MEAN_MOTION":"15.08848969","OBJECT_NAME":"STARLINK-3153","MEAN_MOTION_DOT":"0.00003365","GP_ID":"212094551","FILE":"3564431","RCS_SIZE":"LARGE","CENTER_NAME":"EARTH","CLASSIFICATION_TYPE":"U","INCLINATION":"53.2166","RA_OF_ASC_NODE":"206.7234","EPHEMERIS_TYPE":"0","ELEMENT_SET_NO":"999","BSTAR":"0.00022937000000","SEMIMAJOR_AXIS":"6917.853"},{"CENTER_NAME":"EARTH","CLASSIFICATION_TYPE":"U","RCS_SIZE":"LARGE","FILE":"3564431","SEMIMAJOR_AXIS":"6917.878","ELEMENT_SET_NO":"999","EPHEMERIS_TYPE":"0","BSTAR":"0.00007212300000","INCLINATION":"53.2161","RA_OF_ASC_NODE":"195.5146","LAUNCH_DATE":"2021-11-13","TIME_SYSTEM":"UTC","ECCENTRICITY":"0.00023180","MEAN_MOTION_DOT":"0.00000860","GP_ID":"212094293","OBJECT_TYPE":"PAYLOAD","SITE":"AFETR","OBJECT_NAME":"STARLINK-3158","ARG_OF_PERICENTER":"38.9739","MEAN_MOTION":"15.08840942","MEAN_ELEMENT_THEORY":"SGP4","REF_FRAME":"TEME","TLE_LINE1":"1 49432U 21104AA  22251.86184724  .00000860  00000-0  72123-4 0  9995","EPOCH":"2022-09-08T20:41:03.601536","PERIAPSIS":"538.139","MEAN_ANOMALY":"321.1420","OBJECT_ID":"2021-104AA","APOAPSIS":"541.346","PERIOD":"95.437","TLE_LINE2":"2 49432  53.2161 195.5146 0002318  38.9739 321.1420 15.08840942 45863","NORAD_CAT_ID":"49432","DECAY_DATE":null,"MEAN_MOTION_DDOT":"0.0000000000000","REV_AT_EPOCH":"4586","COUNTRY_CODE":"US"},{"CLASSIFICATION_TYPE":"U","CENTER_NAME":"EARTH","FILE":"3564340","RCS_SIZE":"LARGE","SEMIMAJOR_AXIS":"6917.895","RA_OF_ASC_NODE":"187.0017","INCLINATION":"53.2161","EPHEMERIS_TYPE":"0","BSTAR":"0.00021668000000","ELEMENT_SET_NO":"999","TIME_SYSTEM":"UTC","LAUNCH_DATE":"2021-11-13","ECCENTRICITY":"0.00025050","MEAN_MOTION_DOT":"0.00003161","GP_ID":"212068436","MEAN_MOTION":"15.08835308","SITE":"AFETR","OBJECT_TYPE":"PAYLOAD","ARG_OF_PERICENTER":"45.9813","OBJECT_NAME":"STARLINK-3079","MEAN_ELEMENT_THEORY":"SGP4","REF_FRAME":"TEME","PERIAPSIS":"538.027","TLE_LINE1":"1 49433U 21104AB  22251.53061243  .00003161  00000-0  21668-3 0  9994","EPOCH":"2022-09-08T12:44:04.913952","MEAN_ANOMALY":"314.1386","OBJECT_ID":"2021-104AB","NORAD_CAT_ID":"49433","TLE_LINE2":"2 49433  53.2161 187.0017 0002505  45.9813 314.1386 15.08835308 47041","PERIOD":"95.438","APOAPSIS":"541.493","MEAN_MOTION_DDOT":"0.0000000000000","DECAY_DATE":null,"COUNTRY_CODE":"US","REV_AT_EPOCH":"4704"},{"MEAN_ELEMENT_THEORY":"SGP4","REF_FRAME":"TEME","TLE_LINE1":"1 49434U 21104AC  22251.29693002 -.00000754  00000-0 -29242-4 0  9996","PERIAPSIS":"538.328","EPOCH":"2022-09-08T07:07:34.753728","MEAN_ANOMALY":"301.8200","OBJECT_ID":"2021-104AC","TLE_LINE2":"2 49434  53.2176 208.0630 0002021  58.2989 301.8200 15.08846236 46721","NORAD_CAT_ID":"49434","APOAPSIS":"541.124","PERIOD":"95.437","DECAY_DATE":null,"MEAN_MOTION_DDOT":"0.0000000000000","COUNTRY_CODE":"US","REV_AT_EPOCH":"4672","CENTER_NAME":"EARTH","CLASSIFICATION_TYPE":"U","FILE":"3563723","RCS_SIZE":"LARGE","SEMIMAJOR_AXIS":"6917.861","INCLINATION":"53.2176","RA_OF_ASC_NODE":"208.0630","BSTAR":"-0.00002924200000","EPHEMERIS_TYPE":"0","ELEMENT_SET_NO":"999","TIME_SYSTEM":"UTC","LAUNCH_DATE":"2021-11-13","ECCENTRICITY":"0.00020210","MEAN_MOTION_DOT":"-0.00000754","GP_ID":"212052343","SITE":"AFETR","OBJECT_NAME":"STARLINK-3134","OBJECT_TYPE":"PAYLOAD","MEAN_MOTION":"15.08846236","ARG_OF_PERICENTER":"58.2989"},{"MEAN_ANOMALY":"307.7745","OBJECT_ID":"2021-104AD","TLE_LINE2":"2 49435  53.2161 185.7928 0001740  52.3405 307.7745 15.08836798 45991","NORAD_CAT_ID":"49435","APOAPSIS":"540.959","PERIOD":"95.438","MEAN_MOTION_DDOT":"0.0000000000000","DECAY_DATE":null,"COUNTRY_CODE":"US","REV_AT_EPOCH":"4599","MEAN_ELEMENT_THEORY":"SGP4","REF_FRAME":"TEME","TLE_LINE1":"1 49435U 21104AD  22251.80021003  .00002195  00000-0  15598-3 0  9997","PERIAPSIS":"538.551","EPOCH":"2022-09-08T19:12:18.146592","TIME_SYSTEM":"UTC","LAUNCH_DATE":"2021-11-13","ECCENTRICITY":"0.00017400","MEAN_MOTION_DOT":"0.00002195","GP_ID":"212094051","SITE":"AFETR","MEAN_MOTION":"15.08836798","OBJECT_TYPE":"PAYLOAD","OBJECT_NAME":"STARLINK-3117","ARG_OF_PERICENTER":"52.3405","CENTER_NAME":"EARTH","CLASSIFICATION_TYPE":"U","FILE":"3564431","RCS_SIZE":"LARGE","SEMIMAJOR_AXIS":"6917.890","INCLINATION":"53.2161","RA_OF_ASC_NODE":"185.7928","EPHEMERIS_TYPE":"0","ELEMENT_SET_NO":"999","BSTAR":"0.00015598000000"}];
